{
  "norad_id": 66089,
  "name": "STARLINK-35571",
  "history": [
    {
      "epoch": "2026-03-28T02:12:48.019680Z",
      "apogee_km": 475.9097849426371,
      "perigee_km": 474.45934796631263,
      "latitude_deg": 5.3260391138031084e-05,
      "longitude_deg": 159.57112347339108,
      "height_km": 476.2039299787986,
      "semi_major_axis_km": 6853.321566454475,
      "eccentricity": 0.00010582,
      "inclination_deg": 53.1613,
      "raan_deg": 18.2888,
      "arg_perigee_deg": 99.5923,
      "mean_anomaly_deg": 260.5198,
      "mean_motion_rev_day": 15.30210216
    },
    {
      "epoch": "2026-03-29T01:43:35.696352Z",
      "apogee_km": 475.89639502852697,
      "perigee_km": 474.57369422391366,
      "latitude_deg": 1.0873660118371136e-05,
      "longitude_deg": 161.35458417962215,
      "height_km": 475.94907759765164,
      "semi_major_axis_km": 6853.3720446262205,
      "eccentricity": 9.65e-05,
      "inclination_deg": 53.1606,
      "raan_deg": 13.7366,
      "arg_perigee_deg": 73.7948,
      "mean_anomaly_deg": 286.3159,
      "mean_motion_rev_day": 15.3019331
    },
    {
      "epoch": "2026-03-30T01:14:23.906976Z",
      "apogee_km": 476.1865620051876,
      "perigee_km": 474.3662953985231,
      "latitude_deg": -2.226668216779559e-05,
      "longitude_deg": 163.13752173143433,
      "height_km": 476.25890306448287,
      "semi_major_axis_km": 6853.413428701855,
      "eccentricity": 0.0001328,
      "inclination_deg": 53.1615,
      "raan_deg": 9.1861,
      "arg_perigee_deg": 95.3156,
      "mean_anomaly_deg": 264.7996,
      "mean_motion_rev_day": 15.3017945
    },
    {
      "epoch": "2026-03-30T01:14:23.907840Z",
      "apogee_km": 476.18642493691823,
      "perigee_km": 474.3664324667916,
      "latitude_deg": -2.040012438303692e-05,
      "longitude_deg": 163.13751951213519,
      "height_km": 476.2588903620783,
      "semi_major_axis_km": 6853.413428701855,
      "eccentricity": 0.00013278,
      "inclination_deg": 53.1615,
      "raan_deg": 9.1861,
      "arg_perigee_deg": 95.3156,
      "mean_anomaly_deg": 264.7996,
      "mean_motion_rev_day": 15.3017945
    },
    {
      "epoch": "2026-03-30T18:28:59.305440Z",
      "apogee_km": 476.02059940624895,
      "perigee_km": 474.26218523634725,
      "latitude_deg": 4.8952094329066105e-05,
      "longitude_deg": -99.55546965495935,
      "height_km": 476.16087760604233,
      "semi_major_axis_km": 6853.278392321298,
      "eccentricity": 0.00012829,
      "inclination_deg": 53.1618,
      "raan_deg": 5.8487,
      "arg_perigee_deg": 97.9247,
      "mean_anomaly_deg": 262.19,
      "mean_motion_rev_day": 15.30224676
    },
    {
      "epoch": "2026-03-31T11:43:35.014080Z",
      "apogee_km": 476.9385289338452,
      "perigee_km": 473.5896830174215,
      "latitude_deg": 5.987038874053393e-05,
      "longitude_deg": -2.2506017813561536,
      "height_km": 476.2576577924597,
      "semi_major_axis_km": 6853.401105975633,
      "eccentricity": 0.00024432,
      "inclination_deg": 53.1613,
      "raan_deg": 2.5105,
      "arg_perigee_deg": 93.3228,
      "mean_anomaly_deg": 266.8053,
      "mean_motion_rev_day": 15.30183577
    },
    {
      "epoch": "2026-04-01T12:48:25.710624Z",
      "apogee_km": 476.2151684802857,
      "perigee_km": 474.1262802858937,
      "latitude_deg": 4.8662713630802864e-05,
      "longitude_deg": -24.34547411765208,
      "height_km": 476.2625063301614,
      "semi_major_axis_km": 6853.307724383089,
      "eccentricity": 0.0001524,
      "inclination_deg": 53.1612,
      "raan_deg": 357.6569,
      "arg_perigee_deg": 100.6989,
      "mean_anomaly_deg": 259.4184,
      "mean_motion_rev_day": 15.30214852
    },
    {
      "epoch": "2026-04-02T10:45:10.135872Z",
      "apogee_km": 476.10964929595593,
      "perigee_km": 474.18319132650595,
      "latitude_deg": 1.6503984370375005e-05,
      "longitude_deg": 1.3219208191781966,
      "height_km": 476.05495945288766,
      "semi_major_axis_km": 6853.283420311231,
      "eccentricity": 0.00014055,
      "inclination_deg": 53.161,
      "raan_deg": 353.4107,
      "arg_perigee_deg": 90.6268,
      "mean_anomaly_deg": 269.4894,
      "mean_motion_rev_day": 15.30222992
    },
    {
      "epoch": "2026-04-02T21:43:31.987776Z",
      "apogee_km": 475.87272364620094,
      "perigee_km": 474.3347193634809,
      "latitude_deg": -5.1174729356678726e-05,
      "longitude_deg": -165.8425131638978,
      "height_km": 476.18658849284276,
      "semi_major_axis_km": 6853.240721504841,
      "eccentricity": 0.00011221,
      "inclination_deg": 53.1614,
      "raan_deg": 351.288,
      "arg_perigee_deg": 103.8725,
      "mean_anomaly_deg": 256.24,
      "mean_motion_rev_day": 15.30237293
    },
    {
      "epoch": "2026-04-03T21:14:20.835168Z",
      "apogee_km": 475.7626266252237,
      "perigee_km": 474.67705490164735,
      "latitude_deg": -3.0422160703114493e-05,
      "longitude_deg": -164.06489645814085,
      "height_km": 476.3902688583304,
      "semi_major_axis_km": 6853.356840763435,
      "eccentricity": 7.92e-05,
      "inclination_deg": 53.1604,
      "raan_deg": 346.7348,
      "arg_perigee_deg": 120.0172,
      "mean_anomaly_deg": 240.0907,
      "mean_motion_rev_day": 15.30198402
    },
    {
      "epoch": "2026-04-04T20:45:08.277696Z",
      "apogee_km": 475.7141651971797,
      "perigee_km": 474.5203283073952,
      "latitude_deg": 3.62727897194073e-06,
      "longitude_deg": -162.27760104788555,
      "height_km": 476.4525210775172,
      "semi_major_axis_km": 6853.254246752287,
      "eccentricity": 8.71e-05,
      "inclination_deg": 53.1598,
      "raan_deg": 342.1854,
      "arg_perigee_deg": 136.9667,
      "mean_anomaly_deg": 223.1402,
      "mean_motion_rev_day": 15.30232763
    },
    {
      "epoch": "2026-04-04T22:19:11.807328Z",
      "apogee_km": 476.0013153492646,
      "perigee_km": 474.77535673715374,
      "latitude_deg": 8.365724444481968e-06,
      "longitude_deg": 173.83991464098546,
      "height_km": 476.09355307595354,
      "semi_major_axis_km": 6853.525336043209,
      "eccentricity": 8.944e-05,
      "inclination_deg": 53.1593,
      "raan_deg": 341.882,
      "arg_perigee_deg": 71.6156,
      "mean_anomaly_deg": 288.4942,
      "mean_motion_rev_day": 15.30141972
    },
    {
      "epoch": "2026-04-05T20:15:57.874176Z",
      "apogee_km": 475.8610382848028,
      "perigee_km": 474.60413030304244,
      "latitude_deg": 3.799091076422408e-05,
      "longitude_deg": -160.49920558503567,
      "height_km": 476.00241425085767,
      "semi_major_axis_km": 6853.369584293922,
      "eccentricity": 9.17e-05,
      "inclination_deg": 53.1591,
      "raan_deg": 337.6361,
      "arg_perigee_deg": 78.1881,
      "mean_anomaly_deg": 281.9223,
      "mean_motion_rev_day": 15.30194134
    },
    {
      "epoch": "2026-04-06T02:32:10.447872Z",
      "apogee_km": 475.8213356577962,
      "perigee_km": 474.5312679618637,
      "latitude_deg": -3.773824404646863e-05,
      "longitude_deg": 103.97684075562414,
      "height_km": 476.0487611008805,
      "semi_major_axis_km": 6853.31330180983,
      "eccentricity": 9.412e-05,
      "inclination_deg": 53.1587,
      "raan_deg": 336.4221,
      "arg_perigee_deg": 87.696,
      "mean_anomaly_deg": 272.4148,
      "mean_motion_rev_day": 15.30212984
    },
    {
      "epoch": "2026-04-07T20:51:35.581248Z",
      "apogee_km": 475.80514150890394,
      "perigee_km": 474.6263648353588,
      "latitude_deg": -5.235220111522141e-06,
      "longitude_deg": 179.1926673385326,
      "height_km": 476.1510270262586,
      "semi_major_axis_km": 6853.352753172131,
      "eccentricity": 8.6e-05,
      "inclination_deg": 53.1584,
      "raan_deg": 328.2308,
      "arg_perigee_deg": 93.5815,
      "mean_anomaly_deg": 266.5284,
      "mean_motion_rev_day": 15.30199771
    },
    {
      "epoch": "2026-04-07T22:25:38.819712Z",
      "apogee_km": 475.9548831188649,
      "perigee_km": 474.50046206804655,
      "latitude_deg": -1.5795651554658202e-05,
      "longitude_deg": 155.3115880212401,
      "height_km": 476.0959710889997,
      "semi_major_axis_km": 6853.364672593456,
      "eccentricity": 0.00010611,
      "inclination_deg": 53.1597,
      "raan_deg": 327.9276,
      "arg_perigee_deg": 87.6333,
      "mean_anomaly_deg": 272.4789,
      "mean_motion_rev_day": 15.30195779
    },
    {
      "epoch": "2026-04-09T21:27:14.746752Z",
      "apogee_km": 475.9636448686633,
      "perigee_km": 474.4874305780377,
      "latitude_deg": 1.2310746111533475e-05,
      "longitude_deg": 158.87739134063148,
      "height_km": 476.07598371661066,
      "semi_major_axis_km": 6853.36253772335,
      "eccentricity": 0.0001077,
      "inclination_deg": 53.1588,
      "raan_deg": 318.8244,
      "arg_perigee_deg": 86.2898,
      "mean_anomaly_deg": 273.8226,
      "mean_motion_rev_day": 15.30196494
    },
    {
      "epoch": "2026-04-09T21:27:14.747616Z",
      "apogee_km": 475.9638504695404,
      "perigee_km": 474.48722497716153,
      "latitude_deg": 9.548607286687108e-06,
      "longitude_deg": 158.87738567277825,
      "height_km": 476.075970412382,
      "semi_major_axis_km": 6853.36253772335,
      "eccentricity": 0.00010773,
      "inclination_deg": 53.1588,
      "raan_deg": 318.8244,
      "arg_perigee_deg": 86.2898,
      "mean_anomaly_deg": 273.8226,
      "mean_motion_rev_day": 15.30196494
    },
    {
      "epoch": "2026-04-11T20:28:50.558880Z",
      "apogee_km": 475.8518132482923,
      "perigee_km": 474.5661255444338,
      "latitude_deg": -2.7888979169343797e-05,
      "longitude_deg": 162.44602573625016,
      "height_km": 475.8672701030351,
      "semi_major_axis_km": 6853.345969396363,
      "eccentricity": 9.38e-05,
      "inclination_deg": 53.1589,
      "raan_deg": 309.7236,
      "arg_perigee_deg": 68.0587,
      "mean_anomaly_deg": 292.0513,
      "mean_motion_rev_day": 15.30202043
    }
  ]
}